{
  "type": "FeatureCollection",
  "name": "川滇自驾大环线核心途经点",
  "features": [
    {
      "type": "Feature",
      "id": "pt_1",
      "geometry": {
        "type": "Point",
        "coordinates": [
          104.4447,
          30.3235,
          442
        ]
      },
      "properties": {
        "order": 1,
        "name": "成都天府国际机场",
        "alias": "成都天府国际机场T1/T2",
        "date": "2026-06-05",
        "elevation": 442,
        "province": "四川省",
        "city": "成都市",
        "district": "简阳市",
        "address": "四川省成都市简阳市芦葭镇空港大道",
        "description": "[2026-06-05] 成都天府国际机场 - 川滇自驾大环线起点/集合抵达点",
        "type": "start"
      }
    },
    {
      "type": "Feature",
      "id": "pt_2",
      "geometry": {
        "type": "Point",
        "coordinates": [
          102.2348,
          29.9142,
          1332
        ]
      },
      "properties": {
        "order": 2,
        "name": "泸定桥",
        "alias": "大渡河泸定桥风景名胜区",
        "date": "2026-06-05",
        "elevation": 1332,
        "province": "四川省",
        "city": "甘孜藏族自治州",
        "district": "泸定县",
        "address": "四川省甘孜州泸定县泸桥镇大渡河上",
        "description": "[2026-06-05] 泸定桥 - 大渡河著名历史名胜铁索桥",
        "type": "via"
      }
    },
    {
      "type": "Feature",
      "id": "pt_3",
      "geometry": {
        "type": "Point",
        "coordinates": [
          102.2355,
          29.913,
          1345
        ]
      },
      "properties": {
        "order": 3,
        "name": "泸定县",
        "alias": "泸定县城（泸桥镇）",
        "date": "2026-06-05",
        "elevation": 1345,
        "province": "四川省",
        "city": "甘孜藏族自治州",
        "district": "泸定县",
        "address": "四川省甘孜州泸定县城中心",
        "description": "[2026-06-05] 泸定县 - 06.05 住宿地，大渡河谷",
        "type": "via"
      }
    },
    {
      "type": "Feature",
      "id": "pt_4",
      "geometry": {
        "type": "Point",
        "coordinates": [
          101.8682,
          30.1558,
          4200
        ]
      },
      "properties": {
        "order": 4,
        "name": "红海子",
        "alias": "康定红海子（加达通村旁）",
        "date": "2026-06-06",
        "elevation": 4200,
        "province": "四川省",
        "city": "甘孜藏族自治州",
        "district": "康定市",
        "address": "四川省甘孜州康定市S434省道旁",
        "description": "[2026-06-06] 红海子 - S434绝美高原海子，眺望笔架山雪峰",
        "type": "via"
      }
    },
    {
      "type": "Feature",
      "id": "pt_5",
      "geometry": {
        "type": "Point",
        "coordinates": [
          101.7485,
          30.1415,
          4260
        ]
      },
      "properties": {
        "order": 5,
        "name": "斯丁措",
        "alias": "康定机场旁斯丁措湖",
        "date": "2026-06-06",
        "elevation": 4260,
        "province": "四川省",
        "city": "甘孜藏族自治州",
        "district": "康定市",
        "address": "四川省甘孜州康定市折多山顶康定机场附近",
        "description": "[2026-06-06] 斯丁措 - 高原秘境湖泊，直面贡嘎雪山与雅拉雪山",
        "type": "via"
      }
    },
    {
      "type": "Feature",
      "id": "pt_6",
      "geometry": {
        "type": "Point",
        "coordinates": [
          101.8286,
          30.0382,
          4298
        ]
      },
      "properties": {
        "order": 6,
        "name": "折多山观雪台",
        "alias": "G318折多山垭口观雪台",
        "date": "2026-06-06",
        "elevation": 4298,
        "province": "四川省",
        "city": "甘孜藏族自治州",
        "district": "康定市",
        "address": "四川省甘孜州康定市G318国道折多山垭口",
        "description": "[2026-06-06] 折多山观雪台 - 康巴第一关，海拔4298米观雪台",
        "type": "via"
      }
    },
    {
      "type": "Feature",
      "id": "pt_7",
      "geometry": {
        "type": "Point",
        "coordinates": [
          101.523,
          30.052,
          3460
        ]
      },
      "properties": {
        "order": 7,
        "name": "新都桥",
        "alias": "新都桥镇（摄影家走廊）",
        "date": "2026-06-06",
        "elevation": 3460,
        "province": "四川省",
        "city": "甘孜藏族自治州",
        "district": "康定市",
        "address": "四川省甘孜州康定市新都桥镇",
        "description": "[2026-06-06] 新都桥 - 光影交错的摄影家天堂，06.06住宿地",
        "type": "via"
      }
    },
    {
      "type": "Feature",
      "id": "pt_8",
      "geometry": {
        "type": "Point",
        "coordinates": [
          99.1085,
          30.004,
          2580
        ]
      },
      "properties": {
        "order": 8,
        "name": "巴塘县",
        "alias": "巴塘县城（夏邛镇）",
        "date": "2026-06-07",
        "elevation": 2580,
        "province": "四川省",
        "city": "甘孜藏族自治州",
        "district": "巴塘县",
        "address": "四川省甘孜州巴塘县夏邛镇",
        "description": "[2026-06-07] 巴塘县 - 川藏南线出川前最后一站高原绿洲，06.07住宿地",
        "type": "via"
      }
    },
    {
      "type": "Feature",
      "id": "pt_9",
      "geometry": {
        "type": "Point",
        "coordinates": [
          98.9818,
          29.8458,
          2480
        ]
      },
      "properties": {
        "order": 9,
        "name": "金沙江大桥(G318川藏界)",
        "alias": "G318竹巴龙金沙江大桥",
        "date": "2026-06-08",
        "elevation": 2480,
        "province": "四川/西藏交界",
        "city": "甘孜州巴塘县 / 昌都市芒康县",
        "district": "竹巴龙乡",
        "address": "G318国道川藏界金沙江大桥（四川巴塘竹巴龙-西藏芒康朱巴龙）",
        "description": "[2026-06-08] 金沙江大桥(G318川藏界) - 川藏分界大桥，跨越金沙江正式入藏",
        "type": "via"
      }
    },
    {
      "type": "Feature",
      "id": "pt_10",
      "geometry": {
        "type": "Point",
        "coordinates": [
          98.6015,
          29.0435,
          2350
        ]
      },
      "properties": {
        "order": 10,
        "name": "芒康盐井旅游景区",
        "alias": "千年古盐田风景区",
        "date": "2026-06-08",
        "elevation": 2350,
        "province": "西藏自治区",
        "city": "昌都市",
        "district": "芒康县",
        "address": "西藏昌都市芒康县盐井纳西民族乡",
        "description": "[2026-06-08] 芒康盐井旅游景区 - 世界上唯一完整保存的人工原始晒盐古盐田",
        "type": "via"
      }
    },
    {
      "type": "Feature",
      "id": "pt_11",
      "geometry": {
        "type": "Point",
        "coordinates": [
          98.591,
          29.0412,
          2320
        ]
      },
      "properties": {
        "order": 11,
        "name": "加达村(西藏芒康县盐井乡)",
        "alias": "盐井乡加达村红盐田",
        "date": "2026-06-08",
        "elevation": 2320,
        "province": "西藏自治区",
        "city": "昌都市",
        "district": "芒康县",
        "address": "西藏自治区昌都市芒康县盐井纳西民族乡加达村",
        "description": "[2026-06-08] 加达村(西藏芒康县盐井乡) - 澜沧江峡谷西岸纯红盐古盐田村落，自驾打卡核心",
        "type": "via"
      }
    },
    {
      "type": "Feature",
      "id": "pt_12",
      "geometry": {
        "type": "Point",
        "coordinates": [
          98.8788,
          28.441,
          3420
        ]
      },
      "properties": {
        "order": 12,
        "name": "飞来寺风景区观景台",
        "alias": "飞来寺观景台（正对梅里雪山）",
        "date": "2026-06-08",
        "elevation": 3420,
        "province": "云南省",
        "city": "迪庆藏族自治州",
        "district": "德钦县",
        "address": "云南省迪庆州德钦县升平镇G214旁",
        "description": "[2026-06-08] 飞来寺风景区观景台 - 直面梅里雪山十三峰与卡瓦格博峰日照金山经典圣地",
        "type": "via"
      }
    },
    {
      "type": "Feature",
      "id": "pt_13",
      "geometry": {
        "type": "Point",
        "coordinates": [
          98.8795,
          28.4395,
          3400
        ]
      },
      "properties": {
        "order": 13,
        "name": "飞来寺",
        "alias": "德钦飞来寺古刹",
        "date": "2026-06-08",
        "elevation": 3400,
        "province": "云南省",
        "city": "迪庆藏族自治州",
        "district": "德钦县",
        "address": "云南省迪庆州德钦县升平镇飞来寺村",
        "description": "[2026-06-08] 飞来寺 - 建于明代的藏传佛教古刹，06.08住宿打卡地",
        "type": "via"
      }
    },
    {
      "type": "Feature",
      "id": "pt_14",
      "geometry": {
        "type": "Point",
        "coordinates": [
          99.0335,
          28.3245,
          4292
        ]
      },
      "properties": {
        "order": 14,
        "name": "白马雪山垭口",
        "alias": "G214白马雪山老垭口观景台",
        "date": "2026-06-09",
        "elevation": 4292,
        "province": "云南省",
        "city": "迪庆藏族自治州",
        "district": "德钦县",
        "address": "云南省迪庆州德钦县G214老线白马雪山垭口",
        "description": "[2026-06-09] 白马雪山垭口 - 海拔4292米，滇藏公路最高点壮阔雪山垭口",
        "type": "via"
      }
    },
    {
      "type": "Feature",
      "id": "pt_15",
      "geometry": {
        "type": "Point",
        "coordinates": [
          99.3092,
          28.2435,
          2050
        ]
      },
      "properties": {
        "order": 15,
        "name": "奔子栏",
        "alias": "奔子栏镇（茶马古道金沙江重镇）",
        "date": "2026-06-09",
        "elevation": 2050,
        "province": "云南省",
        "city": "迪庆藏族自治州",
        "district": "德钦县",
        "address": "云南省迪庆州德钦县奔子栏镇",
        "description": "[2026-06-09] 奔子栏 - 金沙江河谷要塞，茶马古道咽喉重镇",
        "type": "via"
      }
    },
    {
      "type": "Feature",
      "id": "pt_16",
      "geometry": {
        "type": "Point",
        "coordinates": [
          99.645,
          27.876,
          3270
        ]
      },
      "properties": {
        "order": 16,
        "name": "纳帕海",
        "alias": "纳帕海国家湿地公园 / 依拉草原",
        "date": "2026-06-09",
        "elevation": 3270,
        "province": "云南省",
        "city": "迪庆藏族自治州",
        "district": "香格里拉市",
        "address": "云南省迪庆州香格里拉市建塘镇纳帕海",
        "description": "[2026-06-09] 纳帕海 - 香格里拉高原湿地水上公路与草原牧场",
        "type": "via"
      }
    },
    {
      "type": "Feature",
      "id": "pt_17",
      "geometry": {
        "type": "Point",
        "coordinates": [
          99.7042,
          27.8138,
          3280
        ]
      },
      "properties": {
        "order": 17,
        "name": "香格里拉独克宗古城",
        "alias": "独克宗月光城（龟山大转经筒）",
        "date": "2026-06-09",
        "elevation": 3280,
        "province": "云南省",
        "city": "迪庆藏族自治州",
        "district": "香格里拉市",
        "address": "云南省迪庆州香格里拉市金龙街",
        "description": "[2026-06-09] 香格里拉独克宗古城 - 茶马古道重镇，06.09住宿及夜景核心",
        "type": "via"
      }
    },
    {
      "type": "Feature",
      "id": "pt_18",
      "geometry": {
        "type": "Point",
        "coordinates": [
          99.7045,
          27.8635,
          3380
        ]
      },
      "properties": {
        "order": 18,
        "name": "松赞林景区",
        "alias": "噶丹·松赞林寺",
        "date": "2026-06-10",
        "elevation": 3380,
        "province": "云南省",
        "city": "迪庆藏族自治州",
        "district": "香格里拉市",
        "address": "云南省迪庆州香格里拉市建塘镇尼旺路",
        "description": "[2026-06-10] 松赞林景区 - 云南最大藏传佛教寺院，享有“归化寺/小布达拉宫”美誉",
        "type": "via"
      }
    },
    {
      "type": "Feature",
      "id": "pt_19",
      "geometry": {
        "type": "Point",
        "coordinates": [
          100.0768,
          27.1852,
          1850
        ]
      },
      "properties": {
        "order": 19,
        "name": "虎跳峡镇",
        "alias": "香格里拉市虎跳峡镇",
        "date": "2026-06-10",
        "elevation": 1850,
        "province": "云南省",
        "city": "迪庆藏族自治州",
        "district": "香格里拉市",
        "address": "云南省迪庆州香格里拉市虎跳峡镇人民政府驻地",
        "description": "[2026-06-10] 虎跳峡镇 - 进入虎跳峡峡谷前哨镇，06.10住宿地",
        "type": "via"
      }
    },
    {
      "type": "Feature",
      "id": "pt_20",
      "geometry": {
        "type": "Point",
        "coordinates": [
          100.125,
          27.182,
          1800
        ]
      },
      "properties": {
        "order": 20,
        "name": "香格里拉虎跳峡景区",
        "alias": "虎跳峡风景名胜区（上虎跳/中虎跳）",
        "date": "2026-06-11",
        "elevation": 1800,
        "province": "云南省",
        "city": "迪庆藏族自治州",
        "district": "香格里拉市",
        "address": "云南省迪庆州香格里拉市虎跳峡镇东侧金沙江大峡谷",
        "description": "[2026-06-11] 香格里拉虎跳峡景区 - 世界上最深、最壮观的大峡谷之一，惊涛拍岸",
        "type": "via"
      }
    },
    {
      "type": "Feature",
      "id": "pt_21",
      "geometry": {
        "type": "Point",
        "coordinates": [
          100.173,
          27.289,
          2750
        ]
      },
      "properties": {
        "order": 21,
        "name": "哈巴雪山观景台",
        "alias": "虎香公路哈巴雪山观景台",
        "date": "2026-06-11",
        "elevation": 2750,
        "province": "云南省",
        "city": "迪庆藏族自治州",
        "district": "香格里拉市",
        "address": "云南省迪庆州香格里拉市东环线/虎香公路",
        "description": "[2026-06-11] 哈巴雪山观景台 - 遥望哈巴雪山峰群与高山草甸的最佳全景观赏点",
        "type": "via"
      }
    },
    {
      "type": "Feature",
      "id": "pt_22",
      "geometry": {
        "type": "Point",
        "coordinates": [
          100.2185,
          26.9565,
          2450
        ]
      },
      "properties": {
        "order": 22,
        "name": "白沙古镇",
        "alias": "白沙古镇风景区",
        "date": "2026-06-11",
        "elevation": 2450,
        "province": "云南省",
        "city": "丽江市",
        "district": "玉龙纳西族自治县",
        "address": "云南省丽江市玉龙县白沙镇",
        "description": "[2026-06-11] 白沙古镇 - 纳西族最早的聚居地，最原生态慢节奏古镇，06.11住宿地",
        "type": "via"
      }
    },
    {
      "type": "Feature",
      "id": "pt_23",
      "geometry": {
        "type": "Point",
        "coordinates": [
          100.2215,
          27.0285,
          2700
        ]
      },
      "properties": {
        "order": 23,
        "name": "玉湖村",
        "alias": "玉龙雪山第一村 / 洛克故居",
        "date": "2026-06-12",
        "elevation": 2700,
        "province": "云南省",
        "city": "丽江市",
        "district": "玉龙纳西族自治县",
        "address": "云南省丽江市玉龙县白沙镇玉湖村",
        "description": "[2026-06-12] 玉湖村 - 玉龙雪山南麓石头村落，约瑟夫·洛克故居所在地",
        "type": "via"
      }
    },
    {
      "type": "Feature",
      "id": "pt_24",
      "geometry": {
        "type": "Point",
        "coordinates": [
          99.8512,
          26.3195,
          2100
        ]
      },
      "properties": {
        "order": 24,
        "name": "沙溪古镇",
        "alias": "沙溪古镇（寺登街、玉津桥）",
        "date": "2026-06-12",
        "elevation": 2100,
        "province": "云南省",
        "city": "大理白族自治州",
        "district": "剑川县",
        "address": "云南省大理州剑川县沙溪镇寺登街",
        "description": "[2026-06-12] 沙溪古镇 - 茶马古道上唯一幸存的古集市，黑惠江与玉津桥绝美风光",
        "type": "via"
      }
    },
    {
      "type": "Feature",
      "id": "pt_25",
      "geometry": {
        "type": "Point",
        "coordinates": [
          100.1875,
          25.7265,
          1972
        ]
      },
      "properties": {
        "order": 25,
        "name": "洱海生态廊道",
        "alias": "大理洱海生态廊道（才村/阳南溪段）",
        "date": "2026-06-12",
        "elevation": 1972,
        "province": "云南省",
        "city": "大理白族自治州",
        "district": "大理市",
        "address": "云南省大理州大理市洱海西岸",
        "description": "[2026-06-12] 洱海生态廊道 - 苍山洱海骑行与漫步核心走廊",
        "type": "via"
      }
    },
    {
      "type": "Feature",
      "id": "pt_26",
      "geometry": {
        "type": "Point",
        "coordinates": [
          100.165,
          25.6965,
          1980
        ]
      },
      "properties": {
        "order": 26,
        "name": "大理古城",
        "alias": "大理古城南门 / 复兴路",
        "date": "2026-06-12",
        "elevation": 1980,
        "province": "云南省",
        "city": "大理白族自治州",
        "district": "大理市",
        "address": "云南省大理州大理市大理镇一塔路",
        "description": "[2026-06-12] 大理古城 - 风花雪月大理核心古城，06.12住宿地",
        "type": "via"
      }
    },
    {
      "type": "Feature",
      "id": "pt_27",
      "geometry": {
        "type": "Point",
        "coordinates": [
          100.1658,
          25.7062,
          1985
        ]
      },
      "properties": {
        "order": 27,
        "name": "大理北门菜市场",
        "alias": "大理古城北门农贸市场",
        "date": "2026-06-13",
        "elevation": 1985,
        "province": "云南省",
        "city": "大理白族自治州",
        "district": "大理市",
        "address": "云南省大理州大理市大理古城北门街",
        "description": "[2026-06-13] 大理北门菜市场 - 烟火气最浓的大理本地农贸早市与特色小吃聚集地",
        "type": "via"
      }
    },
    {
      "type": "Feature",
      "id": "pt_28",
      "geometry": {
        "type": "Point",
        "coordinates": [
          102.7538,
          24.9525,
          1890
        ]
      },
      "properties": {
        "order": 28,
        "name": "云南省博物馆",
        "alias": "云南省博物馆新馆",
        "date": "2026-06-13",
        "elevation": 1890,
        "province": "云南省",
        "city": "昆明市",
        "district": "官渡区",
        "address": "云南省昆明市官渡区广福路6393号",
        "description": "[2026-06-13] 云南省博物馆 - 云南历史文化殿堂，古滇国青铜重器与南诏大理国瑰宝",
        "type": "via"
      }
    },
    {
      "type": "Feature",
      "id": "pt_29",
      "geometry": {
        "type": "Point",
        "coordinates": [
          102.7305,
          25.0345,
          1890
        ]
      },
      "properties": {
        "order": 29,
        "name": "昆明万象城",
        "alias": "华润昆明万象城",
        "date": "2026-06-13",
        "elevation": 1890,
        "province": "云南省",
        "city": "昆明市",
        "district": "官渡区",
        "address": "云南省昆明市官渡区环城南路与东郊路交叉口",
        "description": "[2026-06-13] 昆明万象城 - 返程前市区补给购物与餐饮中心",
        "type": "via"
      }
    },
    {
      "type": "Feature",
      "id": "pt_30",
      "geometry": {
        "type": "Point",
        "coordinates": [
          102.935,
          25.1055,
          2102
        ]
      },
      "properties": {
        "order": 30,
        "name": "昆明长水国际机场T1航站楼",
        "alias": "昆明长水国际机场（出发层）",
        "date": "2026-06-13",
        "elevation": 2102,
        "province": "云南省",
        "city": "昆明市",
        "district": "官渡区",
        "address": "云南省昆明市官渡区长水国际机场T1航站楼",
        "description": "[2026-06-13] 昆明长水国际机场T1航站楼 - 川滇大环线自驾圆满收官/返程航班出发点",
        "type": "end"
      }
    },
    {
      "type": "Feature",
      "id": "route_overview_line",
      "geometry": {
        "type": "LineString",
        "coordinates": [
          [
            104.4447,
            30.3235,
            442
          ],
          [
            102.2348,
            29.9142,
            1332
          ],
          [
            102.2355,
            29.913,
            1345
          ],
          [
            101.8682,
            30.1558,
            4200
          ],
          [
            101.7485,
            30.1415,
            4260
          ],
          [
            101.8286,
            30.0382,
            4298
          ],
          [
            101.523,
            30.052,
            3460
          ],
          [
            99.1085,
            30.004,
            2580
          ],
          [
            98.9818,
            29.8458,
            2480
          ],
          [
            98.6015,
            29.0435,
            2350
          ],
          [
            98.591,
            29.0412,
            2320
          ],
          [
            98.8788,
            28.441,
            3420
          ],
          [
            98.8795,
            28.4395,
            3400
          ],
          [
            99.0335,
            28.3245,
            4292
          ],
          [
            99.3092,
            28.2435,
            2050
          ],
          [
            99.645,
            27.876,
            3270
          ],
          [
            99.7042,
            27.8138,
            3280
          ],
          [
            99.7045,
            27.8635,
            3380
          ],
          [
            100.0768,
            27.1852,
            1850
          ],
          [
            100.125,
            27.182,
            1800
          ],
          [
            100.173,
            27.289,
            2750
          ],
          [
            100.2185,
            26.9565,
            2450
          ],
          [
            100.2215,
            27.0285,
            2700
          ],
          [
            99.8512,
            26.3195,
            2100
          ],
          [
            100.1875,
            25.7265,
            1972
          ],
          [
            100.165,
            25.6965,
            1980
          ],
          [
            100.1658,
            25.7062,
            1985
          ],
          [
            102.7538,
            24.9525,
            1890
          ],
          [
            102.7305,
            25.0345,
            1890
          ],
          [
            102.935,
            25.1055,
            2102
          ]
        ]
      },
      "properties": {
        "name": "川滇自驾大环线 (30个核心控制点)",
        "distanceKm": 2160,
        "startDate": "2026-06-05",
        "endDate": "2026-06-13"
      }
    }
  ]
}